SAUDISAT 2              
1 28371U 04025F   26140.96527325  .00000155  00000+0  45654-4 0  9992
2 28371  98.5508 140.2448 0025188  23.1751 337.0576 14.56664890161787
COSMOS 2407             
1 28380U 04028A   26141.25056881  .00000068  00000+0  53735-4 0  9994
2 28380  82.9591  94.7829 0038529 329.7472 141.3428 13.76332262 96178
COSMOS 2414             
1 28521U 05002A   26141.21434508  .00000081  00000+0  54215-4 0  9995
2 28521  82.9505  64.0472 0041294  47.6869 312.7782 13.87923639 80078
INMARSAT 4-F1           
1 28628U 05009A   26141.05611757  .00000025  00000+0  00000+0 0  9991
2 28628   5.1337  42.7112 0002598  13.8617  20.4391  1.00270121 77405
SJ-7                    
1 28737U 05024A   26141.32049047  .00005284  00000+0  24017-3 0  9996
2 28737  97.7302 170.7091 0017470 123.0473 237.2443 15.21077400143944
CUBESAT XI-V            
1 28895U 05043F   26140.95153706  .00000799  00000+0  13401-3 0  9999
2 28895  98.2956 296.0075 0012825 293.8253  66.1609 14.72548922 97741
HINODE (SOLAR-B)        
1 29479U 06041A   26141.06853032  .00000401  00000+0  77332-4 0  9993
2 29479  98.0559 157.6208 0017850  19.0946 341.0924 14.68577838 50890
SHIJIAN-6 02B (SJ-6 02B)
1 29506U 06046B   26141.28690544  .00001221  00000+0  99493-4 0  9993
2 29506  97.7154 170.5119 0012483 144.1899 216.0164 15.01293682 66701
DMSP 5D-3 F17 (USA 191) 
1 29522U 06050A   26141.22862670  .00000007  00000+0  25891-4 0  9993
2 29522  98.7383 148.3504 0011008 128.5656 231.6506 14.14987901  8610
LAPAN-TUBSAT            
1 29709U 07001A   26141.25153358 -.00000250  00000+0 -21978-4 0  9990
2 29709  98.1344 139.8702 0010691 275.1901  84.8093 14.85918058 47158
HAIYANG-1B              
1 31113U 07010A   26141.22547917  .00000049  00000+0  34542-4 0  9992
2 31113  98.3487 124.1184 0012233 282.9941  76.9876 14.31019445996770
COSMO-SKYMED 2          
1 32376U 07059A   26141.29184260  .00000242  00000+0  36967-4 0  9990
2 32376  97.8884 325.2804 0001453  90.5986 269.5394 14.82160671998012
CARTOSAT-2A             
1 32783U 08021A   26141.25921708  .00000343  00000+0  52946-4 0  9991
2 32783  97.7646 190.8850 0011316 191.9428 168.1517 14.79195223974823
CUTE-1.7+APD II (CO-65) 
1 32785U 08021C   26141.19962214  .00003174  00000+0  20391-3 0  9996
2 32785  97.8273 122.0660 0010709 115.6662 244.5673 15.09161323981127
SEEDS II (CO-66)        
1 32791U 08021J   26140.96838990  .00011601  00000+0  38132-3 0  9996
2 32791  97.7528 137.5897 0004651  68.4532 291.7203 15.31710918983129
YUBILEINY (RS30)        
1 32953U 08025A   26141.29927061  .00000089  00000+0  56708-3 0  9992
2 32953  82.5058  12.1671 0020024  12.9229 347.2360 12.43178651816359
FENGYUN 3A              
1 32958U 08026A   26141.26350556  .00000039  00000+0  39243-4 0  9995
2 32958  98.6875  82.6023 0008211 198.8292 161.2582 14.19564760931588
HUANJING 1A (HJ-1A)     
1 33320U 08041A   26141.26208845  .00001460  00000+0  18153-3 0  9994
2 33320  97.6678 128.1457 0017667 223.6388 136.3430 14.83920645954418
HUANJING 1B (HJ-1B)     
1 33321U 08041B   26141.28660115  .00000779  00000+0  10070-3 0  9991
2 33321  97.6516 131.4215 0034670 272.2231  87.5014 14.83266514954423
SHIJIAN-6 03A (SJ-6 03A)
1 33408U 08053A   26141.26892931  .00002756  00000+0  14345-3 0  9997
2 33408  97.8426 173.6582 0013166 103.8444 256.4254 15.16860609958887
SHIJIAN-6 03B (SJ-6 03B)
1 33409U 08053B   26141.29262315  .00000341  00000+0  29133-4 0  9998
2 33409  97.8580 160.7403 0020772 128.1252 232.1850 15.04216811958707
