OBJECT_NAME,OBJECT_ID,EPOCH,MEAN_MOTION,ECCENTRICITY,INCLINATION,RA_OF_ASC_NODE,ARG_OF_PERICENTER,MEAN_ANOMALY,EPHEMERIS_TYPE,CLASSIFICATION_TYPE,NORAD_CAT_ID,ELEMENT_SET_NO,REV_AT_EPOCH,BSTAR,MEAN_MOTION_DOT,MEAN_MOTION_DDOT
SAUDISAT 2,2004-025F,2026-05-20T23:09:59.608800,14.56664890,.0025188,98.5508,140.2448,23.1751,337.0576,0,U,28371,999,16178,.45653865E-4,.155E-5,0
COSMOS 2407,2004-028A,2026-05-21T06:00:49.145184,13.76332262,.00385291,82.9591,94.7829,329.7472,141.3428,0,U,28380,999,9617,.53735313E-4,.68E-6,0
COSMOS 2414,2005-002A,2026-05-21T05:08:39.414912,13.87923639,.00412949,82.9505,64.0472,47.6869,312.7782,0,U,28521,999,8007,.54214738E-4,.81E-6,0
INMARSAT 4-F1,2005-009A,2026-05-21T01:20:48.558048,1.00270121,.00025989,5.1337,42.7112,13.8617,20.4391,0,U,28628,999,7740,0,.25E-6,0
SJ-7,2005-024A,2026-05-21T07:41:30.376608,15.21077400,.00174708,97.7302,170.7091,123.0473,237.2443,0,U,28737,999,14394,.24016616E-3,.5284E-4,0
CUBESAT XI-V,2005-043F,2026-05-20T22:50:12.801984,14.72548922,.0012825,98.2956,296.0075,293.8253,66.1609,0,U,28895,999,9774,.13401075E-3,.799E-5,0
HINODE (SOLAR-B),2006-041A,2026-05-21T01:38:41.019648,14.68577838,.00178505,98.0559,157.6208,19.0946,341.0924,0,U,29479,999,5089,.7733193E-4,.401E-5,0
SHIJIAN-6 02B (SJ-6 02B),2006-046B,2026-05-21T06:53:08.630016,15.01293682,.00124834,97.7154,170.5119,144.1899,216.0164,0,U,29506,999,6670,.99492598E-4,.1221E-4,0
DMSP 5D-3 F17 (USA 191),2006-050A,2026-05-21T05:29:13.346880,14.14987901,.00110084,98.7383,148.3504,128.5656,231.6506,0,U,29522,999,861,.25891421E-4,.7E-7,0
LAPAN-TUBSAT,2007-001A,2026-05-21T06:02:12.501312,14.85918058,.00106914,98.1344,139.8702,275.1901,84.8093,0,U,29709,999,4715,-.21977976E-4,-.25E-5,0
HAIYANG-1B,2007-010A,2026-05-21T05:24:41.400288,14.31019445,.00122339,98.3487,124.1184,282.9941,76.9876,0,U,31113,999,99677,.34542398E-4,.49E-6,0
COSMO-SKYMED 2,2007-059A,2026-05-21T07:00:15.200640,14.82160671,.00014533,97.8884,325.2804,90.5986,269.5394,0,U,32376,999,99801,.36966906E-4,.242E-5,0
CARTOSAT-2A,2008-021A,2026-05-21T06:13:16.355712,14.79195223,.00113164,97.7646,190.8850,191.9428,168.1517,0,U,32783,999,97482,.5294593E-4,.343E-5,0
CUTE-1.7+APD II (CO-65),2008-021C,2026-05-21T04:47:27.352896,15.09161323,.00107092,97.8273,122.0660,115.6662,244.5673,0,U,32785,999,98112,.20391059E-3,.3174E-4,0
SEEDS II (CO-66),2008-021J,2026-05-20T23:14:28.887360,15.31710918,.0004651,97.7528,137.5897,68.4532,291.7203,0,U,32791,999,98312,.3813194E-3,.11601E-3,0
YUBILEINY (RS30),2008-025A,2026-05-21T07:10:56.980704,12.43178651,.00200242,82.5058,12.1671,12.9229,347.2360,0,U,32953,999,81635,.56708394E-3,.89E-6,0
FENGYUN 3A,2008-026A,2026-05-21T06:19:26.880384,14.19564760,.00082118,98.6875,82.6023,198.8292,161.2582,0,U,32958,999,93158,.39243468E-4,.39E-6,0
HUANJING 1A (HJ-1A),2008-041A,2026-05-21T06:17:24.442080,14.83920645,.00176671,97.6678,128.1457,223.6388,136.3430,0,U,33320,999,95441,.18153203E-3,.146E-4,0
HUANJING 1B (HJ-1B),2008-041B,2026-05-21T06:52:42.339360,14.83266514,.00346705,97.6516,131.4215,272.2231,87.5014,0,U,33321,999,95442,.10070159E-3,.779E-5,0
SHIJIAN-6 03A (SJ-6 03A),2008-053A,2026-05-21T06:27:15.492384,15.16860609,.00131669,97.8426,173.6582,103.8444,256.4254,0,U,33408,999,95888,.14345292E-3,.2756E-4,0
SHIJIAN-6 03B (SJ-6 03B),2008-053B,2026-05-21T07:01:22.640160,15.04216811,.00207726,97.8580,160.7403,128.1252,232.1850,0,U,33409,999,95870,.29132735E-4,.341E-5,0
